{
  "norad_id": 57416,
  "name": "STARLINK-30224",
  "history": [
    {
      "epoch": "2026-03-28T20:52:05.130912Z",
      "apogee_km": 486.544622219134,
      "perigee_km": 484.5302710425367,
      "latitude_deg": -1.1963937395023056e-05,
      "longitude_deg": 0.918450445305845,
      "height_km": 485.326241217116,
      "semi_major_axis_km": 6863.6744466308355,
      "eccentricity": 0.00014674,
      "inclination_deg": 43.0016,
      "raan_deg": 140.2236,
      "arg_perigee_deg": 269.33,
      "mean_anomaly_deg": 90.7383,
      "mean_motion_rev_day": 15.26749364
    }
  ]
}