{"fetched_at":"2026-03-29T16:36:15Z","count":15609,"tles":[{"name":"STARLINK-30224","line1":"1 57416U 23102N   26087.86950383  .00004172  00000+0  16508-3 0  9992","line2":"2 57416  43.0016 140.2236 0001467 269.3300  90.7383 15.26749364149177","category":"Starlink"}]}